{
    "links": {
        "self": "http://www.neowsapp.com/rest/v1/neo/54054728?api_key=iIulBulltgU6a56xZRHN4H3l9WmuAYTsLGpBGhQ2"
    },
    "id": "54054728",
    "neo_reference_id": "54054728",
    "name": "(2020 SC7)",
    "designation": "2020 SC7",
    "nasa_jpl_url": "http://ssd.jpl.nasa.gov/sbdb.cgi?sstr=54054728",
    "absolute_magnitude_h": 26.785,
    "estimated_diameter": {
        "kilometers": {
            "estimated_diameter_min": 0.0116830161,
            "estimated_diameter_max": 0.0261240183
        },
        "meters": {
            "estimated_diameter_min": 11.6830161383,
            "estimated_diameter_max": 26.1240182675
        },
        "miles": {
            "estimated_diameter_min": 0.0072594874,
            "estimated_diameter_max": 0.0162327074
        },
        "feet": {
            "estimated_diameter_min": 38.3301066673,
            "estimated_diameter_max": 85.7087240929
        }
    },
    "is_potentially_hazardous_asteroid": false,
    "close_approach_data": [
        {
            "close_approach_date": "2020-09-25",
            "close_approach_date_full": "2020-Sep-25 18:01",
            "epoch_date_close_approach": 1601056860000,
            "relative_velocity": {
                "kilometers_per_second": "7.6553357302",
                "kilometers_per_hour": "27559.2086287961",
                "miles_per_hour": "17124.2204949317"
            },
            "miss_distance": {
                "astronomical": "0.009831231",
                "lunar": "3.824348859",
                "kilometers": "1470731.21707797",
                "miles": "913870.001577186"
            },
            "orbiting_body": "Earth"
        }
    ],
    "orbital_data": {
        "orbit_id": "1",
        "orbit_determination_date": "2020-09-29 20:42:07",
        "first_observation_date": "2020-09-26",
        "last_observation_date": "2020-09-30",
        "data_arc_in_days": 4,
        "observations_used": 20,
        "orbit_uncertainty": "8",
        "minimum_orbit_intersection": ".00405371",
        "jupiter_tisserand_invariant": "4.825",
        "epoch_osculation": "2459121.5",
        "eccentricity": ".2683106526023937",
        "semi_major_axis": "1.346968120073222",
        "inclination": "11.00650698831276",
        "ascending_node_longitude": "184.7198093342568",
        "orbital_period": "570.997757159113",
        "perihelion_distance": ".985562224741756",
        "perihelion_argument": "154.2020533328409",
        "aphelion_distance": "1.708374015404687",
        "perihelion_time": "2459096.488147001177",
        "mean_anomaly": "15.76935630075894",
        "mean_motion": ".630475331096061",
        "equinox": "J2000",
        "orbit_class": {
            "orbit_class_type": "APO",
            "orbit_class_description": "Near-Earth asteroid orbits which cross the Earth’s orbit similar to that of 1862 Apollo",
            "orbit_class_range": "a (semi-major axis) > 1.0 AU; q (perihelion) < 1.017 AU"
        }
    },
    "is_sentry_object": false
}